COSMOS 2251 DEB         
1 35073U 93036AJC 17345.43301219  .00000838  00000-0  22156-3 0  9990
2 35073  74.0199 147.0683 0039253 260.4632  99.2091 14.49991378248441
